[{"OBJECT_NAME":"STARLINK-33895","OBJECT_ID":"2025-098J","EPOCH":"2026-03-09T21:14:20.500800","MEAN_MOTION":14.98333798,"ECCENTRICITY":0.00029266,"INCLINATION":70.0002,"RA_OF_ASC_NODE":273.8849,"ARG_OF_PERICENTER":256.1693,"MEAN_ANOMALY":103.914,"EPHEMERIS_TYPE":0,"CLASSIFICATION_TYPE":"U","NORAD_CAT_ID":63934,"ELEMENT_SET_NO":999,"REV_AT_EPOCH":4660,"BSTAR":0.00025674868,"MEAN_MOTION_DOT":2.972e-5,"MEAN_MOTION_DDOT":0},{"OBJECT_NAME":"SLS DEB","OBJECT_ID":"2022-156G","EPOCH":"2026-03-08T17:53:10.813056","MEAN_MOTION":12.40383613,"ECCENTRICITY":0.14180709,"INCLINATION":30.5405,"RA_OF_ASC_NODE":304.991,"ARG_OF_PERICENTER":67.3282,"MEAN_ANOMALY":307.0829,"EPHEMERIS_TYPE":0,"CLASSIFICATION_TYPE":"U","NORAD_CAT_ID":55907,"ELEMENT_SET_NO":999,"REV_AT_EPOCH":13507,"BSTAR":0.011881902,"MEAN_MOTION_DOT":0.00109897,"MEAN_MOTION_DDOT":0}]
